{
    "addresses": [
      {
        "id": 1,
        "name": "John Smith",
	"address1": "123 Anywhere",
	"city": "Minneapolis",
	"state": "MN",
	"zip": "55104"
      },
      {
        "id": 2,
        "name": "David Anywhere",
	"address1": "456 Everywhere",
	"city": "Denver",
	"state": "CO",
	"zip": "34567"
      },
      {
        "id": 3,
        "name": "Susan Anderson",
	"address1": "876 Uphill",
	"city": "San Diego",
	"state": "CA",
	"zip": "98568"
      },
      {
        "id": 4,
        "name": "James Smith",
	"address1": "9834 Upper Street",
	"city": "Dallas",
	"state": "TX",
	"zip": "56789"
      },
      {
        "id": 5,
        "name": "Elvis Down",
	"address1": "23 Today",
	"city": "Chicago",
	"state": "IL",
	"zip": "22345"
      },
      {
        "id": 6,
        "name": "Dowly Moore",
	"address1": "567 Jacob Drive",
	"city": "Orlando",
	"state": "FL",
	"zip": "12345"
      },
      {
        "id": 7,
        "name": "Anne-marie Young",
	"address1": "346 Today Rd",
	"city": "Nashville",
	"state": "TN",
	"zip": "89345"
      },
      {
        "id": 8,
        "name": "Three Today",
	"address1": "783 My House",
	"city": "Haze",
	"state": "OH",
	"zip": "23456"
      },
      {
        "id": 9,
        "name": "John David",
	"address1": "986 Road",
	"city": "Alliseville",
	"state": "WA",
	"zip": "99445"
      },
      {
        "id": 10,
        "name": "Ice Man",
	"address1": "000034 Ice House",
	"city": "Deep Freeze",
	"state": "AK",
	"zip": "90183"
      }
   ]
}

